NORAD_CAT_ID,OBJECT_NAME,OBJECT_TYPE,EPOCH,MEAN_MOTION,ECCENTRICITY,INCLINATION,RA_OF_ASC_NODE,ARG_OF_PERICENTER,MEAN_ANOMALY,BSTAR,MEAN_MOTION_DOT,MEAN_MOTION_DDOT,TLE_LINE0,TLE_LINE1,TLE_LINE2,SEMIMAJOR_AXIS,PERIOD,APOGEE,PERIGEE,DECAYED
53401.0,STARLINK-4525,PAYLOAD,2023-03-11 04:45:26,15.08885028,0.0001302,53.216,357.4893,98.4962,261.6178,0.0037006,0.00059175,0.0,0 STARLINK-4525,1 53401U 22097P   23070.19822902  .00059175  00000-0  37006-2 0  9993,2 53401  53.2160 357.4893 0001302  98.4962 261.6178 15.08885028 32792,6917.743,95.435,540.508,538.707,0.0
53401.0,STARLINK-4525,PAYLOAD,2023-03-12 07:47:02,15.08828154,0.0001232,53.2168,352.4359,59.1032,301.0081,0.0014608,0.00023029,0.0,0 STARLINK-4525,1 53401U 22097P   23071.32433056  .00023029  00000-0  14608-2 0  9999,2 53401  53.2168 352.4359 0001232  59.1032 301.0081 15.08828154 32964,6917.917,95.438,540.634,538.929,0.0
53401.0,STARLINK-4525,PAYLOAD,2023-03-13 04:27:01,15.08878259,9.29e-05,53.2164,348.5686,75.0943,285.0152,0.0015145,0.00023923,0.0,0 STARLINK-4525,1 53401U 22097P   23072.18543804  .00023923  00000-0  15145-2 0  9997,2 53401  53.2164 348.5686 0000929  75.0943 285.0152 15.08878259 33095,6917.763,95.435,540.271,538.986,0.0
53401.0,STARLINK-4525,PAYLOAD,2023-03-13 21:56:17,15.08831145,9.21e-05,53.2156,345.2982,94.9831,265.1266,0.001361,0.00021433,0.0,0 STARLINK-4525,1 53401U 22097P   23072.91409254  .00021433  00000-0  13610-2 0  9997,2 53401  53.2156 345.2982 0000921  94.9831 265.1266 15.08831145 33691,6917.907,95.438,540.41,539.135,0.0
53401.0,STARLINK-4525,PAYLOAD,2023-03-14 05:53:13,15.08851523,8.98e-05,53.2158,343.8111,86.0496,274.0599,0.0022241,0.00035297,0.0,0 STARLINK-4525,1 53401U 22097P   23073.24529307  .00035297  00000-0  22241-2 0  9999,2 53401  53.2158 343.8111 0000898  86.0496 274.0599 15.08851523 33255,6917.845,95.437,540.331,539.089,0.0
53401.0,STARLINK-4525,PAYLOAD,2023-03-14 10:39:22,15.0885075,6.55e-05,53.2161,342.9189,69.1372,290.969,0.001991,0.0003155,0.0,0 STARLINK-4525,1 53401U 22097P   23073.44401295  .00031550  00000-0  19910-2 0  9993,2 53401  53.2161 342.9189 0000655  69.1372 290.9690 15.08850750 33283,6917.848,95.437,540.166,539.259,0.0
53401.0,STARLINK-4525,PAYLOAD,2023-03-14 20:11:41,15.08858155,9.63e-05,53.2163,341.1355,70.5192,289.5904,0.0017568,0.00027796,0.0,0 STARLINK-4525,1 53401U 22097P   23073.84145155  .00027796  00000-0  17568-2 0  9991,2 53401  53.2163 341.1355 0000963  70.5192 289.5904 15.08858155 33345,6917.825,95.436,540.356,539.024,0.0
53401.0,STARLINK-4525,PAYLOAD,2023-03-14 21:47:04,15.08864475,8.92e-05,53.216,340.8386,62.7087,297.3996,0.0014276,0.0002252,0.0,0 STARLINK-4525,1 53401U 22097P   23073.90769005  .00022520  00000-0  14276-2 0  9997,2 53401  53.2160 340.8386 0000892  62.7087 297.3996 15.08864475 33844,6917.806,95.436,540.288,539.054,0.0
53401.0,STARLINK-4525,PAYLOAD,2023-03-15 02:33:13,15.08891795,8.85e-05,53.215,339.9482,77.0974,283.0117,0.0025543,0.00040656,0.0,0 STARLINK-4525,1 53401U 22097P   23074.10640315  .00040656  00000-0  25543-2 0  9991,2 53401  53.2150 339.9482 0000885  77.0974 283.0117 15.08891795 33386,6917.722,95.434,540.199,538.975,0.0
53401.0,STARLINK-4525,PAYLOAD,2023-03-15 21:37:51,15.08855466,0.0001551,53.2152,336.3766,81.7672,278.3496,0.0017073,0.00027,0.0,0 STARLINK-4525,1 53401U 22097P   23074.90128903  .00027000  00000-0  17073-2 0  9990,2 53401  53.2152 336.3766 0001551  81.7672 278.3496 15.08855466 33991,6917.833,95.437,540.771,538.625,0.0
53401.0,STARLINK-4525,PAYLOAD,2023-03-16 05:34:46,15.08873714,0.0001414,53.2153,334.8897,88.278,271.8374,0.0014712,0.00023225,0.0,0 STARLINK-4525,1 53401U 22097P   23075.23248225  .00023225  00000-0  14712-2 0  9999,2 53401  53.2153 334.8897 0001414  88.2780 271.8374 15.08873714 33551,6917.777,95.435,540.621,538.664,0.0
53401.0,STARLINK-4525,PAYLOAD,2023-03-16 21:28:38,15.0882401,0.0003675,53.2149,331.917,154.8999,205.2172,0.0013105,0.00020623,0.0,0 STARLINK-4525,1 53401U 22097P   23075.89489178  .00020623  00000-0  13105-2 0  9999,2 53401  53.2149 331.9170 0003675 154.8999 205.2172 15.08824010 34149,6917.929,95.439,542.337,537.252,0.0
53401.0,STARLINK-4525,PAYLOAD,2023-03-16 23:04:02,15.08820691,0.0001873,53.2157,331.6168,125.9509,234.1657,0.00083488,0.00013017,0.0,0 STARLINK-4525,1 53401U 22097P   23075.96113615  .00013017  00000-0  83488-3 0  9998,2 53401  53.2157 331.6168 0001873 125.9509 234.1657 15.08820691 33662,6917.939,95.439,541.1,538.509,0.0
53401.0,STARLINK-4525,PAYLOAD,2023-03-17 10:11:44,15.0883318,0.0001614,53.2156,329.5362,74.1975,285.9195,0.0010276,0.00016101,0.0,0 STARLINK-4525,1 53401U 22097P   23076.42482389  .00016101  00000-0  10276-2 0  9998,2 53401  53.2156 329.5362 0001614  74.1975 285.9195 15.08833180 34229,6917.901,95.438,540.883,538.65,0.0
53401.0,STARLINK-4525,PAYLOAD,2023-03-17 21:19:26,15.08853135,0.0001495,53.2149,327.4539,75.7573,284.3585,0.0012081,0.00018998,0.0,0 STARLINK-4525,1 53401U 22097P   23076.88850138  .00018998  00000-0  12081-2 0  9991,2 53401  53.2149 327.4539 0001495  75.7573 284.3585 15.08853135 34297,6917.84,95.437,540.739,538.671,0.0
53401.0,STARLINK-4525,PAYLOAD,2023-03-18 02:05:35,15.08863269,0.0001598,53.2153,326.5626,73.4556,286.6611,0.0012961,0.00020413,0.0,0 STARLINK-4525,1 53401U 22097P   23077.08721878  .00020413  00000-0  12961-2 0  9994,2 53401  53.2153 326.5626 0001598  73.4556 286.6611 15.08863269 33832,6917.809,95.436,540.78,538.569,0.0
53401.0,STARLINK-4525,PAYLOAD,2023-03-18 10:02:31,15.08860026,0.0001482,53.2148,325.0758,71.2235,288.8917,0.00081646,0.00012737,0.0,0 STARLINK-4525,1 53401U 22097P   23077.41841668  .00012737  00000-0  81646-3 0  9998,2 53401  53.2148 325.0758 0001482  71.2235 288.8917 15.08860026 33884,6917.819,95.436,540.709,538.659,0.0
53401.0,STARLINK-4525,PAYLOAD,2023-03-18 21:10:12,15.08857065,0.0001472,53.2154,322.9933,87.7632,272.3529,0.00047062,7.213e-05,0.0,0 STARLINK-4525,1 53401U 22097P   23077.88209394  .00007213  00000-0  47062-3 0  9990,2 53401  53.2154 322.9933 0001472  87.7632 272.3529 15.08857065 33958,6917.828,95.436,540.712,538.675,0.0
53401.0,STARLINK-4525,PAYLOAD,2023-03-18 22:45:36,15.0885602,0.0001521,53.216,322.6971,79.9181,280.1983,0.00043048,6.573e-05,0.0,0 STARLINK-4525,1 53401U 22097P   23077.94833402  .00006573  00000-0  43048-3 0  9998,2 53401  53.2160 322.6971 0001521  79.9181 280.1983 15.08856020 34458,6917.831,95.437,540.749,538.644,0.0
53401.0,STARLINK-4525,PAYLOAD,2023-03-19 01:56:22,15.08855219,0.0001444,53.2162,322.1031,77.0631,283.0522,0.00042202,6.438e-05,0.0,0 STARLINK-4525,1 53401U 22097P   23078.08081329  .00006438  00000-0  42202-3 0  9998,2 53401  53.2162 322.1031 0001444  77.0631 283.0522 15.08855219 34477,6917.834,95.437,540.698,538.7,0.0
53401.0,STARLINK-4525,PAYLOAD,2023-03-19 21:01:00,15.0884418,0.0001415,53.2155,318.5332,77.6617,282.4533,0.00015177,2.129e-05,0.0,0 STARLINK-4525,1 53401U 22097P   23078.87569470  .00002129  00000-0  15177-3 0  9997,2 53401  53.2155 318.5332 0001415  77.6617 282.4533 15.08844180 34100,6917.868,95.437,540.711,538.754,0.0
53401.0,STARLINK-4525,PAYLOAD,2023-03-19 22:36:22,15.08850513,0.00013,53.2153,318.2365,80.4966,279.6173,0.00011894,1.606e-05,0.0,0 STARLINK-4525,1 53401U 22097P   23078.94193223  .00001606  00000-0  11894-3 0  9995,2 53401  53.2153 318.2365 0001300  80.4966 279.6173 15.08850513 34603,6917.848,95.437,540.613,538.814,0.0
53401.0,STARLINK-4525,PAYLOAD,2023-03-20 22:27:10,15.08844591,0.0001206,53.2145,313.7768,82.5802,277.5327,8.6835e-05,1.095e-05,0.0,0 STARLINK-4525,1 53401U 22097P   23079.93553340  .00001095  00000-0  86835-4 0  9995,2 53401  53.2145 313.7768 0001206  82.5802 277.5327 15.08844591 34267,6917.866,95.437,540.566,538.897,0.0
53401.0,STARLINK-4525,PAYLOAD,2023-03-21 01:37:56,15.08846984,0.0001283,53.2151,313.1798,86.3907,273.7232,0.00012221,1.658e-05,0.0,0 STARLINK-4525,1 53401U 22097P   23080.06801210  .00001658  00000-0  12221-3 0  9995,2 53401  53.2151 313.1798 0001283  86.3907 273.7232 15.08846984 34771,6917.859,95.437,540.612,538.836,0.0
53401.0,STARLINK-4525,PAYLOAD,2023-03-21 22:17:57,15.08836943,0.0001077,53.2147,309.316,85.1872,274.9243,1.815e-05,1e-08,0.0,0 STARLINK-4525,1 53401U 22097P   23080.92913752  .00000001  00000-0  18150-4 0  9994,2 53401  53.2147 309.3160 0001077  85.1872 274.9243 15.08836943 34415,6917.89,95.438,540.5,539.01,0.0
53401.0,STARLINK-4525,PAYLOAD,2023-03-22 20:33:21,15.08843122,0.0001073,53.2142,305.1529,98.9843,261.127,8.2835e-05,1.031e-05,0.0,0 STARLINK-4525,1 53401U 22097P   23081.85649628  .00001031  00000-0  82835-4 0  9990,2 53401  53.2142 305.1529 0001073  98.9843 261.1270 15.08843122 35044,6917.871,95.437,540.478,538.994,0.0
53401.0,STARLINK-4525,PAYLOAD,2023-03-22 23:44:07,15.08849632,0.0001093,53.2139,304.5586,103.7163,256.3951,0.00018897,2.722e-05,0.0,0 STARLINK-4525,1 53401U 22097P   23081.98897283  .00002722  00000-0  18897-3 0  9990,2 53401  53.2139 304.5586 0001093 103.7163 256.3951 15.08849632 34579,6917.851,95.437,540.472,538.96,0.0
53401.0,STARLINK-4525,PAYLOAD,2023-03-23 20:24:07,15.0884897,0.0001831,53.213,300.6886,143.4275,216.6843,8.7895e-05,1.111e-05,0.0,0 STARLINK-4525,1 53401U 22097P   23082.85009189  .00001111  00000-0  87895-4 0  9993,2 53401  53.2130 300.6886 0001831 143.4275 216.6843 15.08848970 34703,6917.853,95.437,540.985,538.451,0.0
53401.0,STARLINK-4525,PAYLOAD,2023-03-23 21:59:31,15.08847606,0.0001074,53.2138,300.3946,97.1653,262.9461,0.00027383,4.074e-05,0.0,0 STARLINK-4525,1 53401U 22097P   23082.91633697  .00004074  00000-0  27383-3 0  9993,2 53401  53.2138 300.3946 0001074  97.1653 262.9461 15.08847606 35200,6917.857,95.437,540.465,538.979,0.0
53401.0,STARLINK-4525,PAYLOAD,2023-03-24 12:17:59,15.08850981,0.0001112,53.2133,297.718,94.2433,265.8686,0.00032507,4.891e-05,0.0,0 STARLINK-4525,1 53401U 22097P   23083.51249534  .00004891  00000-0  32507-3 0  9994,2 53401  53.2133 297.7180 0001112  94.2433 265.8686 15.08850981 35291,6917.847,95.437,540.481,538.943,0.0
